# From MPC 82723
273P/Pons-Gambart,e,136.7651,320.3996,20.3260,31.92068,0.0054651,0.97422630,0.0000,12/19.9644/2012,2000,g 11.5,4.0
# From MPEC 2022-H30
274P/Tombaugh-Tenagra,e,15.8157,81.3396,38.4694,4.375540,0.1076853,0.43934556,1.9958,04/27.0/2022,2000,g 13.0,4.0
# From MPC 81862
275P/Hermann,e,21.2757,348.7576,174.0105,5.775424,0.0710114,0.71260326,242.9095,04/27.0/2022,2000,g 17.0,4.0
# From MPEC 2020-K19
276P/Vorobjov,e,14.8101,211.3652,199.5690,5.322055,0.0802759,0.26757494,282.7922,04/27.0/2022,2000,g 11.5,4.0
# From MPEC 2021-F20
277P/LINEAR,e,16.7768,276.3298,152.3177,3.853472,0.1302944,0.50591843,62.9045,04/27.0/2022,2000,g 15.1,4.0
# From MPEC 2021-S45
278P/McNaught,e,6.6958,15.3819,237.8205,3.688425,0.1391370,0.43601834,82.4176,04/27.0/2022,2000,g 14.0,4.0
# From MPC100285
279P/La Sagra,e,5.0525,346.2331,5.8440,3.572998,0.1459335,0.39869108,307.8176,04/27.0/2022,2000,g 14.0,4.0
# From MPC 89013
280P/Larsen,e,11.7740,131.3933,104.7575,4.530040,0.1022236,0.41735568,312.4935,04/27.0/2022,2000,g 12.5,4.0
# From MPEC 2021-W31
281P/MOSS,e,4.7189,87.1805,26.6697,4.874621,0.0915783,0.17234854,334.2921,04/27.0/2022,2000,g 11.0,4.0
# From MPC133426
282P/,e,5.8117,9.2975,217.6324,4.239720,0.1129011,0.18838236,20.8145,04/27.0/2022,2000,g 13.5,2.0
# From MPEC 2021-BE3
283P/Spacewatch,e,14.4552,161.1292,22.2373,4.137290,0.1171197,0.48464863,27.0572,04/27.0/2022,2000,g 16.0,2.0
# From MPEC 2022-D36
284P/McNaught,e,11.8613,144.2614,202.4114,3.676169,0.1398334,0.37553984,31.6611,04/27.0/2022,2000,g 13.0,4.0
# From MPC 85339
285P/LINEAR,e,25.0383,185.5074,178.4381,4.507647,0.1029862,0.61857623,333.1835,04/27.0/2022,2000,g 15.0,4.0
# From MPEC 2021-O56
286P/Christensen,e,17.0444,283.9564,24.8577,4.110227,0.1182784,0.42557850,358.1495,04/27.0/2022,2000,g 14.0,4.0
# From MPC 96868
287P/Christensen,e,16.3200,139.0422,189.0497,4.163398,0.1160198,0.27104579,309.6920,04/27.0/2022,2000,g 13.5,4.0
# From MPC133426
288P/,e,3.2380,83.1301,280.2554,3.049950,0.1850397,0.20098529,10.3825,04/27.0/2022,2000,g 16.0,2.0
# From MPEC 2021-S45
289P/Blanpain,e,5.8968,68.8827,9.8454,3.046097,0.1853910,0.68569621,159.0640,04/27.0/2022,2000,g 19.0,4.0
# From MPC 95214
290P/Jager,e,20.0693,302.6811,181.8858,6.214897,0.0636141,0.62764817,191.6305,04/27.0/2022,2000,g 10.5,4.0
# From MPEC 2021-N06
291P/NEAT,e,6.2984,237.8383,173.6061,4.538675,0.1019320,0.43561509,321.9882,04/27.0/2022,2000,g 13.0,4.0
# From MPC115887
292P/Li,e,24.2763,90.9505,319.4841,6.104396,0.0653492,0.58905477,196.4734,04/27.0/2022,2000,g 12.5,4.0
# From MPEC 2021-S45
293P/Spacewatch,e,9.0576,78.3998,41.0010,3.642286,0.1417891,0.41824465,70.0259,04/27.0/2022,2000,g 14.5,4.0
# From MPEC 2020-SI8
294P/LINEAR,e,18.0615,312.1625,235.4781,3.190771,0.1729261,0.60140613,151.4671,04/27.0/2022,2000,g 15.5,4.0
# From MPC 93589
295P/LINEAR,e,21.0741,7.4380,72.8739,5.305970,0.0806412,0.61659990,235.0892,04/27.0/2022,2000,g 12.0,4.0
# From MPEC 2021-N06
296P/Garradd,e,25.2341,263.5790,350.0422,3.494009,0.1509100,0.47873404,88.4828,04/27.0/2022,2000,g 14.0,4.0
# From MPC102956
297P/Beshore,e,10.3138,97.5773,132.8976,3.450684,0.1537611,0.32023501,70.4217,04/27.0/2022,2000,g 15.0,4.0
# From MPC114609
298P/Christensen,e,7.8708,52.8218,100.6566,3.590758,0.1448522,0.38637369,86.6000,04/27.0/2022,2000,g 15.0,4.0
# From MPEC 2022-CN4
299P/Catalina-PANSTARRS,e,10.4702,271.6179,323.8268,4.386830,0.1072699,0.28108111,281.1536,04/27.0/2022,2000,g 11.5,4.0
# From MPEC 2022-ED3
300P/Catalina,e,5.6740,95.6372,222.9271,2.699542,0.2222127,0.69175735,282.4296,04/27.0/2022,2000,g 16.0,4.0
# From MPC 89014
301P/LINEAR-NEAT,e,10.3398,351.1748,193.6308,5.739608,0.0716771,0.58520332,200.8772,04/27.0/2022,2000,g 13.0,4.0
# From MPEC 2020-HN5
302P/Lemmon-PANSTARRS,e,6.0337,121.7462,208.3667,4.274592,0.1115224,0.23030505,243.3607,04/27.0/2022,2000,g 12.5,4.0
# From MPC 92278
303P/NEAT,e,7.0216,347.9720,356.9353,5.045439,0.0869672,0.51089939,238.7792,04/27.0/2022,2000,g 13.5,4.0
# From MPEC 2020-N08
304P/Ory,e,2.6071,58.9163,335.2453,3.150675,0.1762377,0.60075817,109.6973,04/27.0/2022,2000,g 16.5,4.0
# From MPC101100
305P/Skiff,e,11.6602,240.1039,147.3304,4.642129,0.0985436,0.69374288,267.8435,04/27.0/2022,2000,g 18.0,4.0
# From MPC 92278
306P/LINEAR,e,8.3112,341.3733,0.8670,3.123751,0.1785211,0.59329501,147.2655,04/27.0/2022,2000,g 19.0,4.0
# From MPC 92278
307P/LINEAR,e,4.4355,158.1670,222.1343,5.790919,0.0707266,0.67527095,189.6570,04/27.0/2022,2000,g 15.0,4.0
# From MPEC 2022-C56
308P/Lagerkvist-Carsenty,e,4.8528,63.0568,333.6123,6.601278,0.0581115,0.36414626,147.9142,04/27.0/2022,2000,g 13.0,2.0
# From MPC 94284
309P/LINEAR,e,17.0237,10.1465,49.9380,4.372517,0.1077970,0.61796886,284.2981,04/27.0/2022,2000,g 15.0,4.0
# From MPC 98566
310P/Hill,e,13.1278,8.9218,31.7833,4.180091,0.1153255,0.42212474,297.1096,04/27.0/2022,2000,g 13.5,4.0
# From MPEC 2021-BE3
311P/PANSTARRS,e,4.9697,279.2147,144.5272,2.188410,0.3044465,0.11572629,172.5066,04/27.0/2022,2000,g 17.0,4.0
# From MPEC 2021-BE3
312P/NEAT,e,19.7677,144.6701,207.6061,3.468315,0.1525901,0.42786937,88.3266,04/27.0/2022,2000,g 16.0,4.0
# From MPEC 2021-S45
313P/Gibbs,e,10.9806,105.9690,254.7810,3.163565,0.1751616,0.23503469,129.8277,04/27.0/2022,2000,g 15.0,4.0
# From MPC105243
314P/Montani,e,3.9828,267.6072,214.0144,7.262841,0.0503552,0.41625822,102.1050,04/27.0/2022,2000,g  9.5,4.0
# From MPEC 2021-N06
315P/LONEOS,e,17.7417,68.8228,65.7301,4.940006,0.0897662,0.52096126,177.5588,04/27.0/2022,2000,g 11.0,4.0
# From MPC 92279
316P/LONEOS-Christensen,e,9.8268,246.4424,192.5488,4.373621,0.1077562,0.15602943,259.5151,04/27.0/2022,2000,g 13.5,4.0
# From MPEC 2020-C98
317P/WISE,e,11.9513,275.4918,334.8569,2.963025,0.1932418,0.57050207,111.6803,04/27.0/2022,2000,g 17.5,4.0
# From MPC102103
318P/McNaught-Hartley,e,17.8842,35.5349,313.2622,7.501445,0.0479719,0.67528958,113.9444,04/27.0/2022,2000,g  8.5,6.0
# From MPC 97499
319P/Catalina-McNaught,e,15.0947,111.3697,203.6776,3.567051,0.1462986,0.66667811,3.8869,04/27.0/2022,2000,g 15.0,4.0
# From MPC 96281
320P/McNaught,e,4.9080,295.9370,0.7820,3.093752,0.1811239,0.68554166,84.2073,04/27.0/2022,2000,g 20.5,4.0
# From MPC105243
321P/SOHO,e,20.0926,165.0172,172.7486,2.423436,0.2612503,0.98111145,0.0000,10/26.5126/2023,2000,g 20.0,4.0
# From MPC102103
322P/SOHO,e,11.4681,351.5301,56.8722,2.507863,0.2481695,0.97991108,0.0000,08/21.0849/2023,2000,g 19.0,4.0
# From MPEC 2016-Y36
323P/SOHO,e,5.3340,324.3856,353.0510,2.583060,0.2374119,0.98481843,0.0000,01/17.7995/2021,2000,g 20.0,4.0
# From MPEC 2021-W31
324P/LaSagra,e,21.4042,270.5852,57.5369,3.094558,0.1810532,0.15389022,64.5958,04/27.0/2022,2000,g 13.0,4.0
# From MPEC 2022-H30
325P/Yang-Gao,e,16.6944,257.5597,343.7033,3.522784,0.1490648,0.59338338,4.2946,04/27.0/2022,2000,g 14.0,4.0
# From MPC103849
326P/Hill,e,2.4710,99.8089,278.6284,4.062717,0.1203592,0.31807380,286.2740,04/27.0/2022,2000,g 13.5,4.0
# From MPC 97499
327P/Van Ness,e,36.2512,173.9849,185.0460,3.562473,0.1465807,0.56321831,341.1742,04/27.0/2022,2000,g 16.0,4.0
# From MPC109148
328P/LONEOS-Tucker,e,17.6731,341.6349,30.5263,4.192745,0.1148038,0.55255090,265.5270,04/27.0/2022,2000,g 14.5,4.0
# From MPC101101
329P/LINEAR-Catalina,e,21.6883,87.6632,343.5303,5.189756,0.0833650,0.67769947,195.0527,04/27.0/2022,2000,g 13.5,4.0
# From MPC105243
330P/Catalina,e,15.7002,293.0889,188.8966,6.625120,0.0577981,0.54844736,119.6706,04/27.0/2022,2000,g 12.0,4.0
# From MPEC 2022-C56
331P/Gibbs,e,9.7381,216.7593,184.2771,3.005163,0.1891917,0.04115091,108.1802,04/27.0/2022,2000,g 12.0,4.0
# From MPEC 2016-K18
332P/Ikeya-Murakami,e,9.3800,3.7861,152.3251,3.088574,0.1815796,0.48938727,45.6880,04/27.0/2022,2000,g 18.0,4.0
# From MPEC 2016-EI8
332P-B/Ikeya-Murakami,e,9.3805,3.8028,152.3711,3.082329,0.1821317,0.48970701,359.9699,03/17.0/2016,2000,g 19.0,4.0
# From MPEC 2016-K18
332P-C/Ikeya-Murakami,e,9.3791,3.7866,152.3164,3.088540,0.1815826,0.48939274,45.7029,04/27.0/2022,2000,g 16.5,4.0
# From MPEC 2016-ED0
332P-D/Ikeya-Murakami,e,9.3761,3.7923,152.4393,3.081138,0.1822373,0.48977814,359.9486,03/17.0/2016,2000,g 19.0,4.0
# From MPEC 2016-ED0
332P-E/Ikeya-Murakami,e,9.3774,3.8228,152.2825,3.079877,0.1823493,0.48922008,359.9889,03/17.0/2016,2000,g 21.0,4.0
# From MPEC 2016-ED0
332P-F/Ikeya-Murakami,e,9.5293,3.4757,152.8203,3.163214,0.1751908,0.49918860,359.8501,03/17.0/2016,2000,g 21.0,4.0
# From MPEC 2016-ED0
332P-G/Ikeya-Murakami,e,9.2523,3.6955,154.4000,3.050519,0.1849880,0.49200362,359.9006,03/19.0/2016,2000,g 19.0,4.0
# From MPC100285
332P-H/Ikeya-Murakami,e,9.3796,3.7863,152.3171,3.088725,0.1815663,0.48942797,45.6338,04/27.0/2022,2000,g 19.0,4.0
# From MPEC 2016-ED0
332P-I/Ikeya-Murakami,e,9.3791,3.8048,152.3297,3.081767,0.1821815,0.48955490,359.9360,03/17.0/2016,2000,g 20.5,2.0
# From MPEC 2016-EI8
332P-J/Ikeya-Murakami,e,9.4296,3.6729,152.7712,3.115165,0.1792596,0.49429435,359.8613,03/17.0/2016,2000,g 20.5,2.0
# From MPEC 2020-L06
333P/LINEAR,e,131.9923,115.6390,25.9878,4.220420,0.1136764,0.73662489,252.3336,04/27.0/2022,2000,g 15.0,4.0
# From MPC115888
334P/NEAT,e,20.4085,90.6242,90.1184,6.838229,0.0551174,0.35073614,98.4974,04/27.0/2022,2000,g 10.5,4.0
# From MPEC 2021-U31
335P/Gibbs,e,7.2934,330.8467,162.3118,3.577254,0.1456731,0.54606677,344.4105,04/27.0/2022,2000,g 17.0,4.0
# From MPC105244
336P/McNaught,e,17.8306,298.2498,308.7421,5.034609,0.0872480,0.44439487,166.7372,04/27.0/2022,2000,g 13.5,4.0
# From MPEC 2022-H04
337P/WISE,e,15.3711,106.0613,161.0295,3.285847,0.1654752,0.49660696,349.2186,04/27.0/2022,2000,g 17.0,4.0
# From MPC104796
338P/McNaught,e,25.3856,9.7978,4.4432,3.895354,0.1281987,0.41191823,253.7486,04/27.0/2022,2000,g 12.0,4.0
# From MPC101101
339P/Gibbs,e,5.7333,172.7242,27.4878,3.698286,0.1385809,0.63547805,291.9528,04/27.0/2022,2000,g 17.0,4.0
# From MPC133426
340P/Boattini,e,2.0784,291.6932,35.9330,4.250612,0.1124674,0.28085938,222.8962,04/27.0/2022,2000,g 14.3,4.0
# From MPEC 2021-BE3
341P/Gibbs,e,3.7968,29.9693,312.2219,4.291866,0.1108498,0.41572068,239.0666,04/27.0/2022,2000,g 12.5,4.0
